{
"type": "FeatureCollection",
"name": "CVR_geo",
"crs": { "type": "name", "properties": { "name": "urn:ogc:def:crs:EPSG::25832" } },
"features": [
{ "type": "Feature", "properties": { "pno": 1020924736, "cvr": 37253324, "company": "Develop Holding ApS", "name": "Develop Holding ApS", "address": "Knudsgade 33", "zipcode": "8700", "city": "Horsens", "startdate": "25/11 - 2015", "enddate": null, "employees": null, "industrycode": 649990, "industrydesc": "Anden finansiel formidling i.a.n.", "adgangs_uuid": "0a3f508f-adee-32b8-e044-0003ba298018", "lon": 9.8784785, "lat": 55.86313781 }, "geometry": { "type": "Point", "coordinates": [ 554981.449898544349708, 6191196.250494198873639 ] } },
{ "type": "Feature", "properties": { "pno": 1026517865, "cvr": 41886722, "company": "Brovst Venstrevælgerforening", "name": "Brovst Venstrevælgerforening", "address": "Margrethegårdsvej 7", "zipcode": "9460", "city": "Brovst", "startdate": "26/11 - 2020", "enddate": null, "employees": null, "industrycode": 949900, "industrydesc": "Andre organisationers og foreningers aktiviteter i.a.n.", "adgangs_uuid": "0a3f5099-2d52-32b8-e044-0003ba298018", "lon": 9.46476763, "lat": 57.13261015 }, "geometry": { "type": "Point", "coordinates": [ 528133.019732799031772, 6332243.460511012934148 ] } },
{ "type": "Feature", "properties": { "pno": 1006784065, "cvr": 73336015, "company": "B. C. RENGØRING A/S", "name": "B. C. RENGØRING A/S", "address": " 12", "zipcode": "9999", "city": "Ukendt", "startdate": "15/09 - 1983", "enddate": "31/12 - 1988", "employees": null, "industrycode": 980000, "industrydesc": "Uoplyst", "adgangs_uuid": "f28ce9a8-6248-4981-a62e-bdb39ec3ffc9", "lon": 10.5906874, "lat": 57.71445447 }, "geometry": { "type": "Point", "coordinates": [ 594766.349808067432605, 6398032.430228135548532 ] } },
{ "type": "Feature", "properties": { "pno": 1003182615, "cvr": 73336015, "company": "B. C. RENGØRING A/S", "name": "B C RENGØRING A/S lager", "address": "Hørsvinget 7", "zipcode": "2630", "city": "Taastrup", "startdate": "01/01 - 1989", "enddate": null, "employees": "0", "industrycode": 812300, "industrydesc": "Anden rengøring", "adgangs_uuid": "0a3f507d-01cb-32b8-e044-0003ba298018", "lon": 12.30420013, "lat": 55.66078384 }, "geometry": { "type": "Point", "coordinates": [ 707835.20987328607589, 6173277.409847317263484 ] } },
{ "type": "Feature", "properties": { "pno": 1003182603, "cvr": 73336015, "company": "B. C. RENGØRING A/S", "name": "B C RENGØRING A/S", "address": "Grandløse Kirkevej 12", "zipcode": "4300", "city": "Holbæk", "startdate": "01/01 - 1989", "enddate": null, "employees": "10-19", "industrycode": 812300, "industrydesc": "Anden rengøring", "adgangs_uuid": "0a3f5083-2958-32b8-e044-0003ba298018", "lon": 11.72762346, "lat": 55.69017159 }, "geometry": { "type": "Point", "coordinates": [ 671450.749747134163044, 6174969.390159453265369 ] } },
{ "type": "Feature", "properties": { "pno": 1005427255, "cvr": 11669239, "company": "SKOVRIDER MOGENS ANDERSEN OG HUSTRU ELIN MICHAELA ANDERSENS FOND", "name": "SKOVRIDER MOGENS ANDERSEN OG HUSTRU ELIN MICHAELA ANDERSENS FOND", "address": "Industrivænget 22", "zipcode": "3400", "city": "Hillerød", "startdate": "01/01 - 1901", "enddate": null, "employees": null, "industrycode": 889910, "industrydesc": "Støtteaktiviteter relateret til sygdomsbekæmpende, sociale og velgørende formål", "adgangs_uuid": "0a3f5080-0600-32b8-e044-0003ba298018", "lon": 12.27716276, "lat": 55.93187364 }, "geometry": { "type": "Point", "coordinates": [ 704707.319791561574675, 6203349.089764299802482 ] } },
{ "type": "Feature", "properties": { "pno": 1009766932, "cvr": 27070825, "company": "ENTERACTION v/Palle Frank Jensen", "name": "ENTERACTION v/Palle Frank Jensen", "address": "Læsøvej 27", "zipcode": "4700", "city": "Næstved", "startdate": "01/02 - 2003", "enddate": null, "employees": "0", "industrycode": 621000, "industrydesc": "Computerprogrammering", "adgangs_uuid": "0a3f5086-23ed-32b8-e044-0003ba298018", "lon": 11.7439356, "lat": 55.2108301 }, "geometry": { "type": "Point", "coordinates": [ 674580.699727190309204, 6121687.059990340843797 ] } },
{ "type": "Feature", "properties": { "pno": 1023910027, "cvr": 39823373, "company": "Wied Holding ApS", "name": "Wied Holding ApS", "address": "Agerbo 19", "zipcode": "2300", "city": "København S", "startdate": "29/08 - 2018", "enddate": null, "employees": null, "industrycode": 642120, "industrydesc": "Ikke-finansielle holdingselskaber", "adgangs_uuid": "0a3f507a-373f-32b8-e044-0003ba298018", "lon": 12.59056683, "lat": 55.64396941 }, "geometry": { "type": "Point", "coordinates": [ 725936.400251871556975, 6172303.019658677279949 ] } },
{ "type": "Feature", "properties": { "pno": 1014802092, "cvr": 25609999, "company": "P. Andersen", "name": "wefind v/Peter Andersen", "address": "Gothersgade 43, 5. tv.", "zipcode": "1123", "city": "København K", "startdate": "25/08 - 2008", "enddate": "31/12 - 2010", "employees": null, "industrycode": 702200, "industrydesc": "Virksomhedsrådgivning og anden rådgivning om driftsledelse", "adgangs_uuid": "0a3f507a-7b71-32b8-e044-0003ba298018", "lon": 12.58145386, "lat": 55.68237033 }, "geometry": { "type": "Point", "coordinates": [ 725142.520159967010841, 6176544.010179243981838 ] } },
{ "type": "Feature", "properties": { "pno": 1007579973, "cvr": 25609999, "company": "P. Andersen", "name": "Surf-Ace v/Peter Andersen", "address": "Pilestræde 35, 3. 1.", "zipcode": "1112", "city": "København K", "startdate": "01/09 - 2000", "enddate": "31/12 - 2005", "employees": "0", "industrycode": 524230, "industrydesc": "Herre- og dametøjsforretninger (blandet)", "adgangs_uuid": "c25ec678-331f-4364-a1e5-c7624e37838f", "lon": 12.58014327, "lat": 55.68078702 }, "geometry": { "type": "Point", "coordinates": [ 725069.270219788886607, 6176363.670435926876962 ] } },
{ "type": "Feature", "properties": { "pno": 1031960955, "cvr": 25609999, "company": "P. Andersen", "name": "P. Andersen", "address": "Dronninggårds Alle 40A", "zipcode": "2840", "city": "Holte", "startdate": "17/11 - 2025", "enddate": null, "employees": null, "industrycode": 702000, "industrydesc": "Virksomhedsrådgivning og anden ledelsesrådgivning", "adgangs_uuid": "0a3f507d-a43b-32b8-e044-0003ba298018", "lon": 12.46049345, "lat": 55.81165013 }, "geometry": { "type": "Point", "coordinates": [ 716823.299800695269369, 6190536.030227377079427 ] } },
{ "type": "Feature", "properties": { "pno": 1026697871, "cvr": 42034274, "company": "Kanvi", "name": "Kanvi", "address": "Spurvevej 4", "zipcode": "6040", "city": "Egtved", "startdate": "18/01 - 2021", "enddate": null, "employees": null, "industrycode": 749100, "industrydesc": "Patentbureauers aktiviteter og tjenesteydelser i forbindelse med markedsføring", "adgangs_uuid": "0a3f508e-e971-32b8-e044-0003ba298018", "lon": 9.40691023, "lat": 55.56035705 }, "geometry": { "type": "Point", "coordinates": [ 525665.359871641849168, 6157225.439904895611107 ] } },
{ "type": "Feature", "properties": { "pno": 1022357960, "cvr": 38565559, "company": "Aarhus Kampsport", "name": "Aarhus Kampsport", "address": "Elmehaven 61", "zipcode": "8520", "city": "Lystrup", "startdate": "11/04 - 2017", "enddate": null, "employees": null, "industrycode": 949900, "industrydesc": "Andre organisationers og foreningers aktiviteter i.a.n.", "adgangs_uuid": "0a3f5096-154b-32b8-e044-0003ba298018", "lon": 10.25223666, "lat": 56.24261817 }, "geometry": { "type": "Point", "coordinates": [ 577606.930198231828399, 6233787.999977915547788 ] } },
{ "type": "Feature", "properties": { "pno": 1018286927, "cvr": 35046070, "company": "F. GRUNNET HOLDING A/S", "name": "F. GRUNNET HOLDING A/S", "address": "Højbro Plads 6", "zipcode": "1200", "city": "København K", "startdate": "13/02 - 2013", "enddate": null, "employees": null, "industrycode": 649990, "industrydesc": "Anden finansiel formidling i.a.n.", "adgangs_uuid": "0a3f507a-9619-32b8-e044-0003ba298018", "lon": 12.57946959, "lat": 55.6782388 }, "geometry": { "type": "Point", "coordinates": [ 725041.580010053003207, 6176078.089787201024592 ] } },
{ "type": "Feature", "properties": { "pno": 1030961613, "cvr": 45266729, "company": "Duynie Feed Sverige AB", "name": "Duynie Feed Sverige AB", "address": "Rygårds Allé 104", "zipcode": "2900", "city": "Hellerup", "startdate": "01/01 - 2025", "enddate": null, "employees": null, "industrycode": 109100, "industrydesc": "Fremstilling af færdige foderblandinger til landbrugsdyr", "adgangs_uuid": "0a3f507a-e840-32b8-e044-0003ba298018", "lon": 12.5593647, "lat": 55.72263028 }, "geometry": { "type": "Point", "coordinates": [ 723524.489853565464728, 6180949.930391465313733 ] } },
{ "type": "Feature", "properties": { "pno": 1018049615, "cvr": 32077420, "company": "KERTEMINDE FORSYNING - RENOVATION A/S", "name": "Kerteminde Komposteringsplads", "address": "Hindsholmvej 279A", "zipcode": "5300", "city": "Kerteminde", "startdate": "09/11 - 2012", "enddate": "10/06 - 2016", "employees": null, "industrycode": 381100, "industrydesc": "Indsamling af ikke-farligt affald", "adgangs_uuid": "0a3f5088-6736-32b8-e044-0003ba298018", "lon": 10.66663139, "lat": 55.47382564 }, "geometry": { "type": "Point", "coordinates": [ 605346.629790012026206, 6148782.780334275215864 ] } },
{ "type": "Feature", "properties": { "pno": 1015141537, "cvr": 32077420, "company": "KERTEMINDE FORSYNING - RENOVATION A/S", "name": "KERTEMINDE FORSYNING - RENOVATION A/S", "address": "Kohaven 12", "zipcode": "5300", "city": "Kerteminde", "startdate": "11/03 - 2009", "enddate": null, "employees": null, "industrycode": 381100, "industrydesc": "Indsamling af ikke-farligt affald", "adgangs_uuid": "0a3f5088-69ec-32b8-e044-0003ba298018", "lon": 10.64976605, "lat": 55.45768553 }, "geometry": { "type": "Point", "coordinates": [ 604323.300158719648607, 6146961.429738 ] } },
{ "type": "Feature", "properties": { "pno": 1015556427, "cvr": 32077420, "company": "KERTEMINDE FORSYNING - RENOVATION A/S", "name": "Munkebo Genbrugsplads", "address": "Garbæksvej 6", "zipcode": "5330", "city": "Munkebo", "startdate": "01/10 - 2009", "enddate": null, "employees": null, "industrycode": 381100, "industrydesc": "Indsamling af ikke-farligt affald", "adgangs_uuid": "0a3f5088-b7f6-32b8-e044-0003ba298018", "lon": 10.54139503, "lat": 55.45725832 }, "geometry": { "type": "Point", "coordinates": [ 597472.099935692967847, 6146756.670079934410751 ] } },
{ "type": "Feature", "properties": { "pno": 1015556443, "cvr": 32077420, "company": "KERTEMINDE FORSYNING - RENOVATION A/S", "name": "Kerteminde Genbrugsplads", "address": "Hindsholmvej 279", "zipcode": "5300", "city": "Kerteminde", "startdate": "01/10 - 2009", "enddate": null, "employees": null, "industrycode": 381100, "industrydesc": "Indsamling af ikke-farligt affald", "adgangs_uuid": "0a3f5088-6736-32b8-e044-0003ba298018", "lon": 10.66663139, "lat": 55.47382564 }, "geometry": { "type": "Point", "coordinates": [ 605346.629790012026206, 6148782.780334275215864 ] } },
{ "type": "Feature", "properties": { "pno": 1015556435, "cvr": 32077420, "company": "KERTEMINDE FORSYNING - RENOVATION A/S", "name": "Langeskov Genbrugsplads", "address": "Mariesmindevej 2", "zipcode": "5550", "city": "Langeskov", "startdate": "01/10 - 2009", "enddate": null, "employees": null, "industrycode": 381100, "industrydesc": "Indsamling af ikke-farligt affald", "adgangs_uuid": "0a3f5088-7fe2-32b8-e044-0003ba298018", "lon": 10.58033184, "lat": 55.3474396 }, "geometry": { "type": "Point", "coordinates": [ 600211.610196427325718, 6134592.249839161522686 ] } },
{ "type": "Feature", "properties": { "pno": 1023243357, "cvr": 32077420, "company": "KERTEMINDE FORSYNING - RENOVATION A/S", "name": "Komposteringsplads", "address": "Hindsholmvej 279", "zipcode": "5300", "city": "Kerteminde", "startdate": "01/09 - 2017", "enddate": null, "employees": null, "industrycode": 383200, "industrydesc": "Deponering eller permanent oplagring", "adgangs_uuid": "0a3f5088-6736-32b8-e044-0003ba298018", "lon": 10.66663139, "lat": 55.47382564 }, "geometry": { "type": "Point", "coordinates": [ 605346.629790012026206, 6148782.780334275215864 ] } },
{ "type": "Feature", "properties": { "pno": 1019310449, "cvr": 35831274, "company": "RENOMA ApS", "name": "RENOMA ApS", "address": "Bygaden 42", "zipcode": "8700", "city": "Horsens", "startdate": "15/04 - 2014", "enddate": null, "employees": "4", "industrycode": 433200, "industrydesc": "Tømrer- og bygningssnedkeraktiviteter", "adgangs_uuid": "0a3f508f-8feb-32b8-e044-0003ba298018", "lon": 9.91624158, "lat": 55.8720434 }, "geometry": { "type": "Point", "coordinates": [ 557331.739742092904635, 6192217.990432085469365 ] } },
{ "type": "Feature", "properties": { "pno": 1030459535, "cvr": 44911272, "company": "DJ Boliginvest ApS", "name": "DJ Boliginvest ApS", "address": "Sundvænget 14", "zipcode": "6400", "city": "Sønderborg", "startdate": "20/06 - 2024", "enddate": null, "employees": null, "industrycode": 681100, "industrydesc": "Køb og salg af egen fast ejendom", "adgangs_uuid": "0a3f508c-8841-32b8-e044-0003ba298018", "lon": 9.761843, "lat": 54.91823835 }, "geometry": { "type": "Point", "coordinates": [ 548832.539789283997379, 6085958.810084948316216 ] } },
{ "type": "Feature", "properties": { "pno": 1026260856, "cvr": 41676930, "company": "NASS, Børkop Holding ApS", "name": "NASS, Børkop Holding ApS", "address": "Borggårdsparken 26", "zipcode": "7080", "city": "Børkop", "startdate": "15/09 - 2020", "enddate": null, "employees": null, "industrycode": 642110, "industrydesc": "Finansielle holdingselskaber", "adgangs_uuid": "0a3f508e-bd01-32b8-e044-0003ba298018", "lon": 9.65541644, "lat": 55.6362052 }, "geometry": { "type": "Point", "coordinates": [ 541259.710026261629537, 6165786.220459613017738 ] } },
{ "type": "Feature", "properties": { "pno": 1009852375, "cvr": 27142567, "company": "Stensebygård v/ L.K.W. Hansen", "name": "Kaka Consult v/Lars Wichmann", "address": "Krabbesholmvej 27, 1. th.", "zipcode": "2700", "city": "Brønshøj", "startdate": "01/05 - 2003", "enddate": "15/10 - 2003", "employees": null, "industrycode": 980000, "industrydesc": "Uoplyst", "adgangs_uuid": "0a3f507a-ae5e-32b8-e044-0003ba298018", "lon": 12.49852935, "lat": 55.70267694 }, "geometry": { "type": "Point", "coordinates": [ 719817.939894178532995, 6178536.200455865822732 ] } },
{ "type": "Feature", "properties": { "pno": 1010793889, "cvr": 27142567, "company": "Stensebygård v/ L.K.W. Hansen", "name": "Stensebygård v/ L.K.W. Hansen", "address": "Stensebyvejen 28", "zipcode": "3730", "city": "Nexø", "startdate": "01/08 - 2004", "enddate": null, "employees": "0", "industrycode": 21000, "industrydesc": "Dyrkning af træer og andre skovbrugsaktiviteter", "adgangs_uuid": "0a3f5087-a356-32b8-e044-0003ba298018", "lon": 15.05724646, "lat": 55.03831048 }, "geometry": { "type": "Point", "coordinates": [ 886855.669912782264873, 6115839.219812569208443 ] } },
{ "type": "Feature", "properties": { "pno": 1009891982, "cvr": 27175813, "company": "Aventa IT v/ Simon Kjellerup", "name": "Aventa IT v/ Simon Kjellerup", "address": "Forchhammersvej 28, 4", "zipcode": "1920", "city": "Frederiksberg C", "startdate": "01/06 - 2003", "enddate": null, "employees": "3", "industrycode": 622000, "industrydesc": "Computerkonsulentbistand og forvaltning af computerfaciliteter", "adgangs_uuid": "0a3f507b-4791-32b8-e044-0003ba298018", "lon": 12.5491328, "lat": 55.68062198 }, "geometry": { "type": "Point", "coordinates": [ 723121.619983817450702, 6176245.060347747057676 ] } },
{ "type": "Feature", "properties": { "pno": 1031524993, "cvr": 45764044, "company": "Waken Technology ApS", "name": "Waken Technology ApS", "address": "Helsinkigade 29", "zipcode": "2150", "city": "Nordhavn", "startdate": "16/07 - 2025", "enddate": null, "employees": null, "industrycode": 261100, "industrydesc": "Fremstilling af elektroniske komponenter", "adgangs_uuid": "0a3f507a-bc26-32b8-e044-0003ba298018", "lon": 12.59788684, "lat": 55.70806117 }, "geometry": { "type": "Point", "coordinates": [ 726026.659880664781667, 6179454.630306297913194 ] } },
{ "type": "Feature", "properties": { "pno": 1030373665, "cvr": 44845466, "company": "Npn support", "name": "Npn support", "address": "Finsensvej 11C, 3. th.", "zipcode": "2000", "city": "Frederiksberg", "startdate": "22/05 - 2024", "enddate": null, "employees": null, "industrycode": 952200, "industrydesc": "Reparation og vedligeholdelse af husholdningsapparater og redskaber til hus og have", "adgangs_uuid": "0a3f507b-4658-32b8-e044-0003ba298018", "lon": 12.5190469, "lat": 55.68028841 }, "geometry": { "type": "Point", "coordinates": [ 721232.97968998667784, 6176111.530376918613911 ] } },
{ "type": "Feature", "properties": { "pno": 1029017596, "cvr": 43843222, "company": "M. Taggatz Holding ApS", "name": "M. Taggatz Holding ApS", "address": "Rødtjørnevej 4", "zipcode": "3100", "city": "Hornbæk", "startdate": "10/02 - 2023", "enddate": null, "employees": null, "industrycode": 642120, "industrydesc": "Ikke-finansielle holdingselskaber", "adgangs_uuid": "0a3f507f-d4ff-32b8-e044-0003ba298018", "lon": 12.44280588, "lat": 56.08017644 }, "geometry": { "type": "Point", "coordinates": [ 714226.919775098096579, 6220346.61954190954566 ] } },
{ "type": "Feature", "properties": { "pno": 1014541299, "cvr": 31581354, "company": "EMMER HOLDING ApS", "name": "EMMER HOLDING ApS", "address": "Farimagsvej 32", "zipcode": "4700", "city": "Næstved", "startdate": "23/06 - 2008", "enddate": null, "employees": null, "industrycode": 682040, "industrydesc": "Udlejning af erhvervsejendomme", "adgangs_uuid": "0a3f5086-0514-32b8-e044-0003ba298018", "lon": 11.76550237, "lat": 55.23148479 }, "geometry": { "type": "Point", "coordinates": [ 675861.339897308847867, 6124038.849965525791049 ] } },
{ "type": "Feature", "properties": { "pno": 1018756753, "cvr": 35475168, "company": "Tøjeksperten, Varde ApS", "name": "Tøjeksperten, Varde ApS", "address": "Kræmmergade 11", "zipcode": "6800", "city": "Varde", "startdate": "16/09 - 2013", "enddate": null, "employees": "3", "industrycode": 477110, "industrydesc": "Detailhandel med tøj", "adgangs_uuid": "0a3f508e-5c6e-32b8-e044-0003ba298018", "lon": 8.48223253, "lat": 55.62075283 }, "geometry": { "type": "Point", "coordinates": [ 467392.630143994290847, 6163993.310440858826041 ] } },
{ "type": "Feature", "properties": { "pno": 1008298447, "cvr": 25913221, "company": "Arne Kartin Olsen", "name": "Arne Kartin Olsen", "address": "Havbakken 198", "zipcode": "6710", "city": "Esbjerg V", "startdate": "23/02 - 2001", "enddate": null, "employees": "0", "industrycode": 702000, "industrydesc": "Virksomhedsrådgivning og anden ledelsesrådgivning", "adgangs_uuid": "0a3f508d-8934-32b8-e044-0003ba298018", "lon": 8.37815478, "lat": 55.51731091 }, "geometry": { "type": "Point", "coordinates": [ 460735.170027661253698, 6152535.360259252600372 ] } },
{ "type": "Feature", "properties": { "pno": 1029447450, "cvr": 44158000, "company": "NovaLink ApS", "name": "NovaLink ApS", "address": "Rødovrevej 247, st. tv.", "zipcode": "2610", "city": "Rødovre", "startdate": "01/07 - 2023", "enddate": null, "employees": null, "industrycode": 642120, "industrydesc": "Ikke-finansielle holdingselskaber", "adgangs_uuid": "75d4829b-34f6-165e-e044-00144f3ead67", "lon": 12.46220781, "lat": 55.69060369 }, "geometry": { "type": "Point", "coordinates": [ 717603.930292405886576, 6177078.830090929754078 ] } },
{ "type": "Feature", "properties": { "pno": 1029499787, "cvr": 44199041, "company": "H. Jespersen ApS", "name": "H. Jespersen ApS", "address": "Wagnersvej 8, st. tv.", "zipcode": "2450", "city": "København SV", "startdate": "23/07 - 2023", "enddate": null, "employees": "1", "industrycode": 622000, "industrydesc": "Computerkonsulentbistand og forvaltning af computerfaciliteter", "adgangs_uuid": "0a3f507b-1a5d-32b8-e044-0003ba298018", "lon": 12.53277521, "lat": 55.64757755 }, "geometry": { "type": "Point", "coordinates": [ 722281.100029043504037, 6172517.519594485871494 ] } },
{ "type": "Feature", "properties": { "pno": 1024774038, "cvr": 40576746, "company": "JF coachning", "name": "JF coachning", "address": "Alphavej 11", "zipcode": "8270", "city": "Højbjerg", "startdate": "12/06 - 2019", "enddate": null, "employees": null, "industrycode": 855900, "industrydesc": "Anden undervisning i.a.n.", "adgangs_uuid": "0a3f5095-df4e-32b8-e044-0003ba298018", "lon": 10.18893379, "lat": 56.12854834 }, "geometry": { "type": "Point", "coordinates": [ 573902.879925379296765, 6221023.499821457080543 ] } },
{ "type": "Feature", "properties": { "pno": 1027954177, "cvr": 43018507, "company": "BygSupport", "name": "BygSupport", "address": "Under Bankerne 5", "zipcode": "5492", "city": "Vissenbjerg", "startdate": "14/02 - 2022", "enddate": null, "employees": null, "industrycode": 433200, "industrydesc": "Tømrer- og bygningssnedkeraktiviteter", "adgangs_uuid": "0a3f508a-e7c2-32b8-e044-0003ba298018", "lon": 10.12523139, "lat": 55.37554838 }, "geometry": { "type": "Point", "coordinates": [ 571303.920267385896295, 6137159.560546047985554 ] } },
{ "type": "Feature", "properties": { "pno": 1019540789, "cvr": 36038373, "company": "EHO HOLDING ApS", "name": "EHO HOLDING ApS", "address": "Stejlbjergparken 17C", "zipcode": "7120", "city": "Vejle Øst", "startdate": "04/07 - 2014", "enddate": null, "employees": null, "industrycode": 642120, "industrydesc": "Ikke-finansielle holdingselskaber", "adgangs_uuid": "7096f618-6956-5ed1-e044-00144f3ead67", "lon": 9.60537086, "lat": 55.70893658 }, "geometry": { "type": "Point", "coordinates": [ 538038.661526728188619, 6173851.814385971054435 ] } },
{ "type": "Feature", "properties": { "pno": 1001840369, "cvr": 43477617, "company": "VUGGESTUEN FREDERIKSGÅRDEN", "name": "VUGGESTUEN FREDERIKSGÅRDEN", "address": "Højmarkvej 45", "zipcode": "8270", "city": "Højbjerg", "startdate": "01/03 - 1973", "enddate": null, "employees": "23", "industrycode": 889120, "industrydesc": "Drift af vuggestuer", "adgangs_uuid": "0a3f5096-5916-32b8-e044-0003ba298018", "lon": 10.21273583, "lat": 56.11208911 }, "geometry": { "type": "Point", "coordinates": [ 575414.500136057264172, 6219217.499498004093766 ] } },
{ "type": "Feature", "properties": { "pno": 1019428229, "cvr": 35685626, "company": "Julie Staxen", "name": "Julie Staxen", "address": "Ingholtsvej 1", "zipcode": "2680", "city": "Solrød Strand", "startdate": "15/06 - 2014", "enddate": null, "employees": "0", "industrycode": 869900, "industrydesc": "Drift af sundhedsvæsen i øvrigt i.a.n.", "adgangs_uuid": "0a3f5082-4980-32b8-e044-0003ba298018", "lon": 12.22906278, "lat": 55.53802132 }, "geometry": { "type": "Point", "coordinates": [ 703746.510050717392005, 6159400.370325589552522 ] } },
{ "type": "Feature", "properties": { "pno": 1008114915, "cvr": 25765605, "company": "OLE VERGMANN HOLDING ApS", "name": "OLE VERGMANN HOLDING ApS", "address": "Skovvangsvej 12", "zipcode": "3670", "city": "Veksø Sjælland", "startdate": "01/12 - 2000", "enddate": null, "employees": null, "industrycode": 642120, "industrydesc": "Ikke-finansielle holdingselskaber", "adgangs_uuid": "0a3f5080-da32-32b8-e044-0003ba298018", "lon": 12.23657944, "lat": 55.76801548 }, "geometry": { "type": "Point", "coordinates": [ 703026.239750850596465, 6185003.880229402333498 ] } },
{ "type": "Feature", "properties": { "pno": 1031969863, "cvr": 46124286, "company": "Tandlæge Simone Holbo Holding ApS", "name": "Tandlæge Simone Holbo Holding ApS", "address": "Nørre Søgade 49", "zipcode": "1370", "city": "København K", "startdate": "17/12 - 2025", "enddate": null, "employees": null, "industrycode": 642120, "industrydesc": "Ikke-finansielle holdingselskaber", "adgangs_uuid": "0a3f507a-d200-32b8-e044-0003ba298018", "lon": 12.56113944, "lat": 55.68154944 }, "geometry": { "type": "Point", "coordinates": [ 723870.779997873934917, 6176386.91946769785136 ] } },
{ "type": "Feature", "properties": { "pno": 1031097319, "cvr": 45416925, "company": "Buresøgaard", "name": "Buresøgaard Brød", "address": "Klokkekildevej 64", "zipcode": "3550", "city": "Slangerup", "startdate": "21/02 - 2025", "enddate": null, "employees": null, "industrycode": 107120, "industrydesc": "Fremstilling af friske bageriprodukter", "adgangs_uuid": "0a3f5080-d2b2-32b8-e044-0003ba298018", "lon": 12.23172307, "lat": 55.8141998 }, "geometry": { "type": "Point", "coordinates": [ 702481.849812462227419, 6190126.65971676632762 ] } },
{ "type": "Feature", "properties": { "pno": 1020053077, "cvr": 36229977, "company": "Ejerforeningen Algade 22", "name": "Ejerforeningen Algade 22", "address": "Algade 22C", "zipcode": "4220", "city": "Korsør", "startdate": "13/01 - 2015", "enddate": "06/04 - 2020", "employees": null, "industrycode": 949900, "industrydesc": "Andre organisationer og foreninger i.a.n.", "adgangs_uuid": "0a3f5083-a4f1-32b8-e044-0003ba298018", "lon": 11.13939933, "lat": 55.3284561 }, "geometry": { "type": "Point", "coordinates": [ 635722.899718259926885, 6133427.040036608465016 ] } },
{ "type": "Feature", "properties": { "pno": 1025778592, "cvr": 36229977, "company": "Ejerforeningen Algade 22", "name": "Ejerforeningen Algade 22", "address": "Algade 22C", "zipcode": "4220", "city": "Korsør", "startdate": "28/04 - 2020", "enddate": "01/05 - 2023", "employees": null, "industrycode": 949900, "industrydesc": "Andre organisationer og foreninger i.a.n.", "adgangs_uuid": "0a3f5083-a4f1-32b8-e044-0003ba298018", "lon": 11.13939933, "lat": 55.3284561 }, "geometry": { "type": "Point", "coordinates": [ 635722.899718259926885, 6133427.040036608465016 ] } },
{ "type": "Feature", "properties": { "pno": 1029349858, "cvr": 36229977, "company": "Ejerforeningen Algade 22", "name": "Ejerforeningen Algade 22", "address": "Algade 22C", "zipcode": "4220", "city": "Korsør", "startdate": "26/05 - 2023", "enddate": null, "employees": null, "industrycode": 949900, "industrydesc": "Andre organisationers og foreningers aktiviteter i.a.n.", "adgangs_uuid": "0a3f5083-a4f1-32b8-e044-0003ba298018", "lon": 11.13939933, "lat": 55.3284561 }, "geometry": { "type": "Point", "coordinates": [ 635722.899718259926885, 6133427.040036608465016 ] } },
{ "type": "Feature", "properties": { "pno": 1029955715, "cvr": 44517248, "company": "Knivsberg Fonden", "name": "Knivsberg Fonden", "address": "Michael Jebsens Plads 1, st", "zipcode": "6200", "city": "Aabenraa", "startdate": "06/12 - 2023", "enddate": null, "employees": null, "industrycode": 889910, "industrydesc": "Støtteaktiviteter relateret til sygdomsbekæmpende, sociale og velgørende formål", "adgangs_uuid": "0a3f508c-ecd3-32b8-e044-0003ba298018", "lon": 9.42194501, "lat": 55.04189266 }, "geometry": { "type": "Point", "coordinates": [ 526962.989741583704017, 6099534.579791112802923 ] } },
{ "type": "Feature", "properties": { "pno": 1006781510, "cvr": 73103215, "company": "N. P. LOUIS-HANSEN ApS", "name": "N. P. LOUIS-HANSEN ApS", "address": " 480", "zipcode": "9999", "city": "Ukendt", "startdate": "28/12 - 1982", "enddate": "16/06 - 1998", "employees": null, "industrycode": 980000, "industrydesc": "Uoplyst", "adgangs_uuid": "833c7b6d-4500-4fa2-b485-388ebb5d1702", "lon": 9.71482194, "lat": 57.36107183 }, "geometry": { "type": "Point", "coordinates": [ 543002.031265842379071, 6357805.807490234263241 ] } },
{ "type": "Feature", "properties": { "pno": 1004623626, "cvr": 73103215, "company": "N. P. LOUIS-HANSEN ApS", "name": "N. P. LOUIS-HANSEN ApS", "address": "Hammerensgade 1, 3", "zipcode": "1267", "city": "København K", "startdate": "17/06 - 1998", "enddate": null, "employees": "1", "industrycode": 682040, "industrydesc": "Udlejning af erhvervsejendomme", "adgangs_uuid": "0a3f507a-8384-32b8-e044-0003ba298018", "lon": 12.59015139, "lat": 55.6883593 }, "geometry": { "type": "Point", "coordinates": [ 725654.500138242263347, 6177238.340067426674068 ] } },
{ "type": "Feature", "properties": { "pno": 1000250287, "cvr": 11525237, "company": "GÅRDEJER KAJ LARSEN", "name": "GÅRDEJER KAJ LARSEN", "address": "Mads Møllersvej 7", "zipcode": "8860", "city": "Ulstrup", "startdate": "01/07 - 1985", "enddate": null, "employees": "0", "industrycode": 11100, "industrydesc": "Dyrkning af korn (undtagen ris), bælgfrugter og olieholdige frø", "adgangs_uuid": "0a3f5097-7803-32b8-e044-0003ba298018", "lon": 9.78050025, "lat": 56.41389698 }, "geometry": { "type": "Point", "coordinates": [ 548155.999990856973454, 6252420.000451326370239 ] } },
{ "type": "Feature", "properties": { "pno": 1031207793, "cvr": 45505243, "company": "AM Rengøring", "name": "AM Rengøring", "address": "Møntmestervej 6A, 1. th.", "zipcode": "2400", "city": "København NV", "startdate": "01/04 - 2025", "enddate": null, "employees": null, "industrycode": 812100, "industrydesc": "Almindelig rengøring i bygninger", "adgangs_uuid": "0a3f507a-c724-32b8-e044-0003ba298018", "lon": 12.51821914, "lat": 55.70789077 }, "geometry": { "type": "Point", "coordinates": [ 721025.059876764309593, 6179178.68954618088901 ] } },
{ "type": "Feature", "properties": { "pno": 1030390411, "cvr": 44858215, "company": "MEB Vejle Holding Aps", "name": "MEB Vejle Holding Aps", "address": "Fousbjergvej 1", "zipcode": "7100", "city": "Vejle", "startdate": "22/05 - 2024", "enddate": null, "employees": null, "industrycode": 642120, "industrydesc": "Ikke-finansielle holdingselskaber", "adgangs_uuid": "0a3f5090-ba3a-32b8-e044-0003ba298018", "lon": 9.57997262, "lat": 55.67135143 }, "geometry": { "type": "Point", "coordinates": [ 536477.7501982585527, 6169655.339875704608858 ] } },
{ "type": "Feature", "properties": { "pno": 1011666333, "cvr": 28984251, "company": "NORTH AIR LOGISTICS A/S", "name": "NORTH AIR LOGISTICS A/S", "address": "Amager Strandvej 418", "zipcode": "2770", "city": "Kastrup", "startdate": "31/08 - 2005", "enddate": null, "employees": "9", "industrycode": 523100, "industrydesc": "Formidlingsaktiviteter inden for godstransport", "adgangs_uuid": "0a3f507d-e0b4-32b8-e044-0003ba298018", "lon": 12.65316263, "lat": 55.63359561 }, "geometry": { "type": "Point", "coordinates": [ 729934.119701707968488, 6171355.089695056900382 ] } },
{ "type": "Feature", "properties": { "pno": 1030323846, "cvr": 44805243, "company": "Kofoed & Kirk ApS", "name": "Kofoed & Kirk ApS", "address": "Smedevænget 18", "zipcode": "4700", "city": "Næstved", "startdate": "02/05 - 2024", "enddate": null, "employees": "1", "industrycode": 439900, "industrydesc": "Andre specialiserede byggeaktiviteter i.a.n.", "adgangs_uuid": "0a3f5086-3c2d-32b8-e044-0003ba298018", "lon": 11.77311993, "lat": 55.19725079 }, "geometry": { "type": "Point", "coordinates": [ 676497.109837779309601, 6120249.989521296694875 ] } },
{ "type": "Feature", "properties": { "pno": 1014887608, "cvr": 31852609, "company": "EJENDOMSSELSKABET VESTERGADE ApS", "name": "EJENDOMSSELSKABET VESTERGADE ApS", "address": "Klodskovvej 13B", "zipcode": "4800", "city": "Nykøbing F", "startdate": "30/10 - 2008", "enddate": null, "employees": null, "industrycode": 682040, "industrydesc": "Udlejning af erhvervsejendomme", "adgangs_uuid": "0a3f5085-d11e-32b8-e044-0003ba298018", "lon": 11.81222176, "lat": 54.81184306 }, "geometry": { "type": "Point", "coordinates": [ 680710.2014610695187, 6077479.494757710956037 ] } },
{ "type": "Feature", "properties": { "pno": 1012336264, "cvr": 29553947, "company": "Gribskov Gymnasium", "name": "Helsinge Gymnasium", "address": "Østergade 52", "zipcode": "3200", "city": "Helsinge", "startdate": "01/01 - 2007", "enddate": "01/01 - 2007", "employees": null, "industrycode": 802100, "industrydesc": "Gymnasier, studenter- og HF-kurser", "adgangs_uuid": "0a3f507f-92fb-32b8-e044-0003ba298018", "lon": 12.20921982, "lat": 56.02316116 }, "geometry": { "type": "Point", "coordinates": [ 699993.070107023930177, 6213304.010157689452171 ] } },
{ "type": "Feature", "properties": { "pno": 1003275101, "cvr": 29553947, "company": "Gribskov Gymnasium", "name": "Gribskov GYMNASIUM", "address": "Østergade 52", "zipcode": "3200", "city": "Helsinge", "startdate": "01/01 - 1993", "enddate": null, "employees": "81", "industrycode": 853120, "industrydesc": "Undervisning på gymnasier, studenter- og HF-kurser", "adgangs_uuid": "0a3f507f-92fb-32b8-e044-0003ba298018", "lon": 12.20921982, "lat": 56.02316116 }, "geometry": { "type": "Point", "coordinates": [ 699993.070107023930177, 6213304.010157689452171 ] } },
{ "type": "Feature", "properties": { "pno": 1020050655, "cvr": 36486198, "company": "HENRIKSEN HOLDING IKAST ApS", "name": "HENRIKSEN HOLDING IKAST ApS", "address": "Hesselbjergvej 13", "zipcode": "7430", "city": "Ikast", "startdate": "05/01 - 2015", "enddate": null, "employees": null, "industrycode": 642120, "industrydesc": "Ikke-finansielle holdingselskaber", "adgangs_uuid": "0a3f5092-0b61-32b8-e044-0003ba298018", "lon": 9.11912692, "lat": 56.11696058 }, "geometry": { "type": "Point", "coordinates": [ 507407.229897214390803, 6219103.499827002175152 ] } },
{ "type": "Feature", "properties": { "pno": 1018756583, "cvr": 35475087, "company": "Servicekompagniet ApS", "name": "Servicekompagniet ApS", "address": "Stavneagervej 43", "zipcode": "8250", "city": "Egå", "startdate": "02/09 - 2013", "enddate": null, "employees": "2", "industrycode": 468600, "industrydesc": "Engroshandel med andre råvarer og halvfabrikata", "adgangs_uuid": "0a3f5096-f3e1-32b8-e044-0003ba298018", "lon": 10.29091233, "lat": 56.22549877 }, "geometry": { "type": "Point", "coordinates": [ 580039.379948832793161, 6231926.999723118729889 ] } },
{ "type": "Feature", "properties": { "pno": 1029333153, "cvr": 44070103, "company": "Cupcake Paradis", "name": "Cupcake Paradis", "address": "Lundegårdshegnet 36", "zipcode": "4030", "city": "Tune", "startdate": "23/05 - 2023", "enddate": null, "employees": null, "industrycode": 471110, "industrydesc": "Detailhandel med kioskvarer", "adgangs_uuid": "0a3f5081-3571-32b8-e044-0003ba298018", "lon": 12.19089897, "lat": 55.59526245 }, "geometry": { "type": "Point", "coordinates": [ 701046.609733948367648, 6165655.829594356007874 ] } },
{ "type": "Feature", "properties": { "pno": 1023291874, "cvr": 39284960, "company": "JK Kløv Holding ApS", "name": "JK Kløv Holding ApS", "address": "Kløv Mølle Vej 15", "zipcode": "7700", "city": "Thisted", "startdate": "29/01 - 2018", "enddate": null, "employees": null, "industrycode": 642120, "industrydesc": "Ikke-finansielle holdingselskaber", "adgangs_uuid": "0a3f5098-8689-32b8-e044-0003ba298018", "lon": 8.81415004, "lat": 57.02219671 }, "geometry": { "type": "Point", "coordinates": [ 488716.740142540074885, 6319872.110430126078427 ] } },
{ "type": "Feature", "properties": { "pno": 1005617395, "cvr": 13889295, "company": "Midtdjurs Klovpleje V/Tage Ørgaard Hansen", "name": "MIDTDJURS KLOVPLEJE/DISKOTEK DIRCHV/TAGE ØRGAARD HANSEN", "address": " 135", "zipcode": "9999", "city": "Ukendt", "startdate": "01/02 - 1987", "enddate": "31/12 - 1990", "employees": null, "industrycode": 980000, "industrydesc": "Uoplyst", "adgangs_uuid": "f28ce9a8-6248-4981-a62e-bdb39ec3ffc9", "lon": 10.5906874, "lat": 57.71445447 }, "geometry": { "type": "Point", "coordinates": [ 594766.349808067432605, 6398032.430228135548532 ] } },
{ "type": "Feature", "properties": { "pno": 1000642600, "cvr": 13889295, "company": "Midtdjurs Klovpleje V/Tage Ørgaard Hansen", "name": "Midtdjurs Klovpleje V/Tage Ørgaard Hansen", "address": "Søndermarken 135", "zipcode": "8560", "city": "Kolind", "startdate": "01/01 - 1991", "enddate": null, "employees": "0", "industrycode": 16200, "industrydesc": "Støtteaktiviteter i forbindelse med husdyravl", "adgangs_uuid": "0a3f5094-2c62-32b8-e044-0003ba298018", "lon": 10.58632107, "lat": 56.35494222 }, "geometry": { "type": "Point", "coordinates": [ 598021.890251378528774, 6246714.589937680400908 ] } }
]
}
